[{"OBJECT_NAME":"STARLINK-2594","OBJECT_ID":"2021-038AM","EPOCH":"2026-03-10T00:00:02.999808","MEAN_MOTION":15.29344338,"ECCENTRICITY":0.00013574,"INCLINATION":53.1555,"RA_OF_ASC_NODE":343.7759,"ARG_OF_PERICENTER":93.8469,"MEAN_ANOMALY":27.5761,"EPHEMERIS_TYPE":0,"CLASSIFICATION_TYPE":"U","NORAD_CAT_ID":48388,"ELEMENT_SET_NO":999,"REV_AT_EPOCH":579,"BSTAR":-0.00014945694,"MEAN_MOTION_DOT":-4.664e-5,"MEAN_MOTION_DDOT":0},{"OBJECT_NAME":"FENGYUN 1C DEB","OBJECT_ID":"1999-025AQG","EPOCH":"2026-03-09T10:43:06.043872","MEAN_MOTION":15.25746961,"ECCENTRICITY":0.00178142,"INCLINATION":98.9311,"RA_OF_ASC_NODE":250.2123,"ARG_OF_PERICENTER":328.3876,"MEAN_ANOMALY":31.6286,"EPHEMERIS_TYPE":0,"CLASSIFICATION_TYPE":"U","NORAD_CAT_ID":30674,"ELEMENT_SET_NO":999,"REV_AT_EPOCH":98658,"BSTAR":0.015201752,"MEAN_MOTION_DOT":0.00411052,"MEAN_MOTION_DDOT":0}]
